[{"OBJECT_NAME":"STARLINK-5803","OBJECT_ID":"2023-042Y","EPOCH":"2026-03-09T09:37:27.894720","MEAN_MOTION":15.02534556,"ECCENTRICITY":0.00013582,"INCLINATION":43.005,"RA_OF_ASC_NODE":57.9458,"ARG_OF_PERICENTER":264.3485,"MEAN_ANOMALY":95.7203,"EPHEMERIS_TYPE":0,"CLASSIFICATION_TYPE":"U","NORAD_CAT_ID":56008,"ELEMENT_SET_NO":999,"REV_AT_EPOCH":16285,"BSTAR":7.871356e-5,"MEAN_MOTION_DOT":8.6e-6,"MEAN_MOTION_DDOT":0},{"OBJECT_NAME":"FENGYUN 1C DEB","OBJECT_ID":"1999-025BLC","EPOCH":"2026-03-08T16:01:16.538592","MEAN_MOTION":14.99951534,"ECCENTRICITY":0.01625238,"INCLINATION":98.6028,"RA_OF_ASC_NODE":151.5668,"ARG_OF_PERICENTER":148.1189,"MEAN_ANOMALY":212.9995,"EPHEMERIS_TYPE":0,"CLASSIFICATION_TYPE":"U","NORAD_CAT_ID":31222,"ELEMENT_SET_NO":999,"REV_AT_EPOCH":1270,"BSTAR":0.0010673359,"MEAN_MOTION_DOT":0.00017492,"MEAN_MOTION_DDOT":0}]
